ONEWEB-0018             
1 45434U 20020L   25162.79710486  .00000615  00000+0  17007-2 0  9990
2 45434  87.8842  94.8904 0001976  80.1789 279.9562 13.11416452254086
ONEWEB-0083             
1 45435U 20020M   25162.78691077  .00000332  00000+0  90019-3 0  9995
2 45435  87.8843  94.8767 0002074  78.5096 281.6265 13.11420652254129
ONEWEB-0095             
1 45436U 20020N   25162.85486772 -.00000274  00000+0 -80889-3 0  9999
2 45436  87.8842  94.8893 0002447  63.3574 296.7804 13.11418013254131
ONEWEB-0092             
1 45437U 20020P   25162.82675352 -.00000363  00000+0 -10605-2 0  9998
2 45437  87.8840  94.8825 0002079  72.3642 287.7713 13.11413975254245
ONEWEB-0085             
1 45438U 20020Q   25162.85631183 -.00000014  00000+0 -75854-4 0  9998
2 45438  87.8842  94.8883 0001924  79.6987 280.4357 13.11422017254131
ONEWEB-0096             
1 45439U 20020R   25162.78860386  .00000363  00000+0  98875-3 0  9992
2 45439  87.8842  94.8677 0001859  82.9027 277.2312 13.11417960254116
ONEWEB-0037             
1 45440U 20020S   25162.84538408 -.00000363  00000+0 -10606-2 0  9995
2 45440  87.8836  94.8186 0002055  76.6447 283.4910 13.11416476254159
ONEWEB-0042             
1 45441U 20020T   25162.85458092 -.00000065  00000+0 -22049-3 0  9991
2 45441  87.8842  94.8648 0001908  78.5924 281.5418 13.11420814254127
